[{"OBJECT_NAME":"STARLINK-31331","OBJECT_ID":"2024-027R","EPOCH":"2026-03-09T22:10:12.903744","MEAN_MOTION":15.30185758,"ECCENTRICITY":0.00012453,"INCLINATION":53.1622,"RA_OF_ASC_NODE":308.5656,"ARG_OF_PERICENTER":109.4082,"MEAN_ANOMALY":250.7053,"EPHEMERIS_TYPE":0,"CLASSIFICATION_TYPE":"U","NORAD_CAT_ID":58946,"ELEMENT_SET_NO":999,"REV_AT_EPOCH":11736,"BSTAR":2.8055981e-5,"MEAN_MOTION_DOT":4.72e-6,"MEAN_MOTION_DDOT":0},{"OBJECT_NAME":"ELECTRON KICK STAGE R\/B","OBJECT_ID":"2022-147B","EPOCH":"2026-03-09T22:28:20.187264","MEAN_MOTION":15.28920172,"ECCENTRICITY":0.00095089,"INCLINATION":97.642,"RA_OF_ASC_NODE":85.1135,"ARG_OF_PERICENTER":110.4683,"MEAN_ANOMALY":249.7578,"EPHEMERIS_TYPE":0,"CLASSIFICATION_TYPE":"U","NORAD_CAT_ID":54228,"ELEMENT_SET_NO":999,"REV_AT_EPOCH":18390,"BSTAR":0.00083201931,"MEAN_MOTION_DOT":0.00023374,"MEAN_MOTION_DDOT":0}]
